{
  "type": "FeatureCollection",
  "features": [
    {
      "type": "Feature",
      "properties": {
        "norad_id": 34121,
        "name": "COSMOS 2251 DEB",
        "group": "cosmos-2251-debris",
        "lat": -72.7892864668927,
        "lon": 22.258153771634934,
        "alt_km": 761.7766333022691,
        "timestamp": "2025-12-16T19:34:24.662303+00:00",
        "meta_object_name": "COSMOS 2251 DEB",
        "meta_object_id": "1993-036KS",
        "meta_epoch": "2025-12-15T09:46:14.469888",
        "meta_mean_motion": 13.91939949,
        "meta_eccentricity": 0.02404377,
        "meta_inclination": 73.993,
        "meta_ra_of_asc_node": 92.5989,
        "meta_arg_of_pericenter": 297.4808,
        "meta_mean_anomaly": 124.7485,
        "meta_ephemeris_type": 0,
        "meta_classification_type": "U",
        "meta_norad_cat_id": 34121,
        "meta_element_set_no": 999,
        "meta_rev_at_epoch": 85162,
        "meta_bstar": 0.0010469792,
        "meta_mean_motion_dot": 1.665e-05,
        "meta_mean_motion_ddot": 0,
        "tle_line1": "1 34121U 93036KS  25349.40711192  .00001665  00000+0  10470-2 0  9991",
        "tle_line2": "2 34121  73.9930  92.5989 0240437 297.4808 124.7485 13.91939949851624"
      },
      "geometry": {
        "type": "Point",
        "coordinates": [
          22.258153771634934,
          -72.7892864668927
        ]
      }
    },
    {
      "type": "Feature",
      "properties": {
        "norad_id": 34122,
        "name": "COSMOS 2251 DEB",
        "group": "cosmos-2251-debris",
        "lat": 19.00131551163152,
        "lon": -74.86403727757643,
        "alt_km": 729.9056892306844,
        "timestamp": "2025-12-16T19:34:24.662313+00:00",
        "meta_object_name": "COSMOS 2251 DEB",
        "meta_object_id": "1993-036KT",
        "meta_epoch": "2025-12-15T18:48:28.103040",
        "meta_mean_motion": 14.65090616,
        "meta_eccentricity": 0.00844818,
        "meta_inclination": 74.0358,
        "meta_ra_of_asc_node": 112.7776,
        "meta_arg_of_pericenter": 8.7907,
        "meta_mean_anomaly": 110.5049,
        "meta_ephemeris_type": 0,
        "meta_classification_type": "U",
        "meta_norad_cat_id": 34122,
        "meta_element_set_no": 999,
        "meta_rev_at_epoch": 88729,
        "meta_bstar": 0.00074274055,
        "meta_mean_motion_dot": 4.173e-05,
        "meta_mean_motion_ddot": 0,
        "tle_line1": "1 34122U 93036KT  25349.78365860  .00004173  00000+0  74274-3 0  9990",
        "tle_line2": "2 34122  74.0358 112.7776 0084481   8.7907 110.5049 14.65090616887290"
      },
      "geometry": {
        "type": "Point",
        "coordinates": [
          -74.86403727757643,
          19.00131551163152
        ]
      }
    },
    {
      "type": "Feature",
      "properties": {
        "norad_id": 34127,
        "name": "COSMOS 2251 DEB",
        "group": "cosmos-2251-debris",
        "lat": -56.17723771448445,
        "lon": 11.464162425379511,
        "alt_km": 757.1956202614201,
        "timestamp": "2025-12-16T19:34:24.662323+00:00",
        "meta_object_name": "COSMOS 2251 DEB",
        "meta_object_id": "1993-036KY",
        "meta_epoch": "2025-12-15T03:45:09.950688",
        "meta_mean_motion": 14.31570499,
        "meta_eccentricity": 0.01149682,
        "meta_inclination": 74.1798,
        "meta_ra_of_asc_node": 39.4965,
        "meta_arg_of_pericenter": 239.1061,
        "meta_mean_anomaly": 152.5561,
        "meta_ephemeris_type": 0,
        "meta_classification_type": "U",
        "meta_norad_cat_id": 34127,
        "meta_element_set_no": 999,
        "meta_rev_at_epoch": 86806,
        "meta_bstar": 0.0010869909,
        "meta_mean_motion_dot": 3.085e-05,
        "meta_mean_motion_ddot": 0,
        "tle_line1": "1 34127U 93036KY  25349.15636517  .00003085  00000+0  10870-2 0  9998",
        "tle_line2": "2 34127  74.1798  39.4965 0114968 239.1061 152.5561 14.31570499868068"
      },
      "geometry": {
        "type": "Point",
        "coordinates": [
          11.464162425379511,
          -56.17723771448445
        ]
      }
    },
    {
      "type": "Feature",
      "properties": {
        "norad_id": 34128,
        "name": "COSMOS 2251 DEB",
        "group": "cosmos-2251-debris",
        "lat": 73.71881358202664,
        "lon": 7.672203392449913,
        "alt_km": 543.194732769889,
        "timestamp": "2025-12-16T19:34:24.662333+00:00",
        "meta_object_name": "COSMOS 2251 DEB",
        "meta_object_id": "1993-036KZ",
        "meta_epoch": "2025-12-15T22:41:25.105344",
        "meta_mean_motion": 15.01298848,
        "meta_eccentricity": 0.00259354,
        "meta_inclination": 73.9993,
        "meta_ra_of_asc_node": 290.1796,
        "meta_arg_of_pericenter": 41.5706,
        "meta_mean_anomaly": 24.391,
        "meta_ephemeris_type": 0,
        "meta_classification_type": "U",
        "meta_norad_cat_id": 34128,
        "meta_element_set_no": 999,
        "meta_rev_at_epoch": 89215,
        "meta_bstar": 0.0012240245,
        "meta_mean_motion_dot": 0.00015859,
        "meta_mean_motion_ddot": 0,
        "tle_line1": "1 34128U 93036KZ  25349.94542946  .00015859  00000+0  12240-2 0  9993",
        "tle_line2": "2 34128  73.9993 290.1796 0025935  41.5706  24.3910 15.01298848892151"
      },
      "geometry": {
        "type": "Point",
        "coordinates": [
          7.672203392449913,
          73.71881358202664
        ]
      }
    },
    {
      "type": "Feature",
      "properties": {
        "norad_id": 34129,
        "name": "COSMOS 2251 DEB",
        "group": "cosmos-2251-debris",
        "lat": -9.517143019762356,
        "lon": -31.199119806016416,
        "alt_km": 635.3191320874848,
        "timestamp": "2025-12-16T19:34:24.662344+00:00",
        "meta_object_name": "COSMOS 2251 DEB",
        "meta_object_id": "1993-036LA",
        "meta_epoch": "2025-12-15T09:27:10.396512",
        "meta_mean_motion": 14.75788643,
        "meta_eccentricity": 0.00330258,
        "meta_inclination": 74.035,
        "meta_ra_of_asc_node": 334.3326,
        "meta_arg_of_pericenter": 54.9728,
        "meta_mean_anomaly": 305.4537,
        "meta_ephemeris_type": 0,
        "meta_classification_type": "U",
        "meta_norad_cat_id": 34129,
        "meta_element_set_no": 999,
        "meta_rev_at_epoch": 61337,
        "meta_bstar": 0.00089607346,
        "meta_mean_motion_dot": 6.167e-05,
        "meta_mean_motion_ddot": 0,
        "tle_line1": "1 34129U 93036LA  25349.39387033  .00006167  00000+0  89607-3 0  9991",
        "tle_line2": "2 34129  74.0350 334.3326 0033025  54.9728 305.4537 14.75788643613372"
      },
      "geometry": {
        "type": "Point",
        "coordinates": [
          -31.199119806016416,
          -9.517143019762356
        ]
      }
    },
    {
      "type": "Feature",
      "properties": {
        "norad_id": 34136,
        "name": "COSMOS 2251 DEB",
        "group": "cosmos-2251-debris",
        "lat": -28.027031877767197,
        "lon": -136.63099408918515,
        "alt_km": 597.7823135366843,
        "timestamp": "2025-12-16T19:34:24.662355+00:00",
        "meta_object_name": "COSMOS 2251 DEB",
        "meta_object_id": "1993-036LH",
        "meta_epoch": "2025-12-15T14:06:57.502656",
        "meta_mean_motion": 14.80102513,
        "meta_eccentricity": 0.00855621,
        "meta_inclination": 74.0212,
        "meta_ra_of_asc_node": 37.015,
        "meta_arg_of_pericenter": 159.2218,
        "meta_mean_anomaly": 351.8506,
        "meta_ephemeris_type": 0,
        "meta_classification_type": "U",
        "meta_norad_cat_id": 34136,
        "meta_element_set_no": 999,
        "meta_rev_at_epoch": 90052,
        "meta_bstar": 0.00029225981,
        "meta_mean_motion_dot": 2.322e-05,
        "meta_mean_motion_ddot": 0,
        "tle_line1": "1 34136U 93036LH  25349.58816554  .00002322  00000+0  29226-3 0  9995",
        "tle_line2": "2 34136  74.0212  37.0150 0085562 159.2218 351.8506 14.80102513900524"
      },
      "geometry": {
        "type": "Point",
        "coordinates": [
          -136.63099408918515,
          -28.027031877767197
        ]
      }
    },
    {
      "type": "Feature",
      "properties": {
        "norad_id": 34139,
        "name": "COSMOS 2251 DEB",
        "group": "cosmos-2251-debris",
        "lat": -17.46198822885781,
        "lon": -118.87308746006624,
        "alt_km": 673.4372203864632,
        "timestamp": "2025-12-16T19:34:24.662365+00:00",
        "meta_object_name": "COSMOS 2251 DEB",
        "meta_object_id": "1993-036LL",
        "meta_epoch": "2025-12-15T19:16:14.726208",
        "meta_mean_motion": 14.59109418,
        "meta_eccentricity": 0.00424749,
        "meta_inclination": 74.0307,
        "meta_ra_of_asc_node": 248.2244,
        "meta_arg_of_pericenter": 318.8068,
        "meta_mean_anomaly": 106.023,
        "meta_ephemeris_type": 0,
        "meta_classification_type": "U",
        "meta_norad_cat_id": 34139,
        "meta_element_set_no": 999,
        "meta_rev_at_epoch": 88194,
        "meta_bstar": 0.00089397396,
        "meta_mean_motion_dot": 4.232e-05,
        "meta_mean_motion_ddot": 0,
        "tle_line1": "1 34139U 93036LL  25349.80294822  .00004232  00000+0  89397-3 0  9998",
        "tle_line2": "2 34139  74.0307 248.2244 0042474 318.8068 106.0230 14.59109418881948"
      },
      "geometry": {
        "type": "Point",
        "coordinates": [
          -118.87308746006624,
          -17.46198822885781
        ]
      }
    }
  ]
}